OSCAR 7 (AO-7)          
1 07530U 74089B   26116.99183436 -.00000025  00000+0  13426-3 0  9998
2 07530 101.9930 129.7005 0011968 227.6136 190.3860 12.53697229354102
PHASE 3B (AO-10)        
1 14129U 83058B   26116.41065167 -.00000006  00000+0  00000+0 0  9992
2 14129  25.8950 228.1939 6029192 101.3882 328.0796  2.05872084294426
UOSAT 2 (UO-11)         
1 14781U 84021B   26117.14072142  .00001314  00000+0  13971-3 0  9996
2 14781  97.8021  83.3030 0007655   5.0344 355.0950 14.90657890249524
LUSAT (LO-19)           
1 20442U 90005G   26117.32034011  .00000146  00000+0  68791-4 0  9992
2 20442  98.8884 137.7163 0011528   1.2376 358.8834 14.34106734895108
EYESAT A (AO-27)        
1 22825U 93061C   26117.16494179  .00000102  00000+0  55994-4 0  9994
2 22825  98.6904 184.5902 0007333 246.7350 113.3061 14.30928018699701
ITAMSAT (IO-26)         
1 22826U 93061D   26117.08963024  .00000093  00000+0  51978-4 0  9993
2 22826  98.6851 184.4271 0008025 228.5293 131.5201 14.31353373700005
RADIO ROSTO (RS15)      
1 23439U 94085A   26117.20844905 -.00000046  00000+0 -93122-4 0  9998
2 23439  64.8209  25.6625 0154493  13.1549 347.3336 11.27583791290157
JAS-2 (FO-29)           
1 24278U 96046B   26117.29500743  .00000016  00000+0  53698-4 0  9996
2 24278  98.5301 333.1206 0349071 228.3975 128.6768 13.53271725466289
TECHSAT 1B (GO-32)      
1 25397U 98043D   26116.85706313  .00000065  00000+0  48141-4 0  9991
2 25397  99.0062 108.3254 0001757  42.3066 317.8248 14.24417863444025
ISS (ZARYA)             
1 25544U 98067A   26117.16773235  .00010693  00000+0  20200-3 0  9996
2 25544  51.6319 192.6271 0007042 355.6641   4.4286 15.48984622563847
PCSAT (NO-44)           
1 26931U 01043C   26117.10197110  .00000120  00000+0  75551-4 0  9995
2 26931  67.0527  16.4003 0006500 263.9911  96.0451 14.31935553283137
SAUDISAT 1C (SO-50)     
1 27607U 02058C   26116.83731362  .00001136  00000+0  15127-3 0  9995
2 27607  64.5515 287.8458 0075591 271.8075  87.4374 14.82930098256841
CUTE-1 (CO-55)          
1 27844U 03031E   26116.96631435  .00000306  00000+0  15134-3 0  9990
2 27844  98.6757 126.1672 0009067 341.6381  18.4470 14.24302740184387
CUBESAT XI-IV (CO-57)   
1 27848U 03031J   26116.99944912  .00000251  00000+0  12918-3 0  9990
2 27848  98.6788 125.9538 0009380   0.4265 359.6920 14.23592362184090
MOZHAETS 4 (RS22)       
1 27939U 03042A   26117.28763999  .00001050  00000+0  17026-3 0  9993
2 27939  98.3472 300.2119 0012516  72.1676  31.2010 14.73372932208058
CUBESAT XI-V            
1 28895U 05043F   26117.16864798  .00001591  00000+0  25858-3 0  9996
2 28895  98.2925 271.7406 0014194  12.8528 347.3037 14.72493837 94245
