[{"OBJECT_NAME":"OSCAR 7 (AO-7)","OBJECT_ID":"1974-089B","EPOCH":"2026-04-26T23:48:14.488704","MEAN_MOTION":12.53697229,"ECCENTRICITY":0.0011968,"INCLINATION":101.993,"RA_OF_ASC_NODE":129.7005,"ARG_OF_PERICENTER":227.6136,"MEAN_ANOMALY":190.386,"EPHEMERIS_TYPE":0,"CLASSIFICATION_TYPE":"U","NORAD_CAT_ID":7530,"ELEMENT_SET_NO":999,"REV_AT_EPOCH":35410,"BSTAR":0.00013425762,"MEAN_MOTION_DOT":-2.5e-7,"MEAN_MOTION_DDOT":0},{"OBJECT_NAME":"PHASE 3B (AO-10)","OBJECT_ID":"1983-058B","EPOCH":"2026-04-26T09:51:20.304288","MEAN_MOTION":2.05872084,"ECCENTRICITY":0.60291924,"INCLINATION":25.895,"RA_OF_ASC_NODE":228.1939,"ARG_OF_PERICENTER":101.3882,"MEAN_ANOMALY":328.0796,"EPHEMERIS_TYPE":0,"CLASSIFICATION_TYPE":"U","NORAD_CAT_ID":14129,"ELEMENT_SET_NO":999,"REV_AT_EPOCH":29442,"BSTAR":0,"MEAN_MOTION_DOT":-6.0e-8,"MEAN_MOTION_DDOT":0},{"OBJECT_NAME":"UOSAT 2 (UO-11)","OBJECT_ID":"1984-021B","EPOCH":"2026-04-27T03:22:38.330688","MEAN_MOTION":14.9065789,"ECCENTRICITY":0.00076554,"INCLINATION":97.8021,"RA_OF_ASC_NODE":83.303,"ARG_OF_PERICENTER":5.0344,"MEAN_ANOMALY":355.095,"EPHEMERIS_TYPE":0,"CLASSIFICATION_TYPE":"U","NORAD_CAT_ID":14781,"ELEMENT_SET_NO":999,"REV_AT_EPOCH":24952,"BSTAR":0.00013970615,"MEAN_MOTION_DOT":1.314e-5,"MEAN_MOTION_DDOT":0},{"OBJECT_NAME":"LUSAT (LO-19)","OBJECT_ID":"1990-005G","EPOCH":"2026-04-27T07:41:17.385504","MEAN_MOTION":14.34106734,"ECCENTRICITY":0.00115289,"INCLINATION":98.8884,"RA_OF_ASC_NODE":137.7163,"ARG_OF_PERICENTER":1.2376,"MEAN_ANOMALY":358.8834,"EPHEMERIS_TYPE":0,"CLASSIFICATION_TYPE":"U","NORAD_CAT_ID":20442,"ELEMENT_SET_NO":999,"REV_AT_EPOCH":89510,"BSTAR":6.8791004e-5,"MEAN_MOTION_DOT":1.46e-6,"MEAN_MOTION_DDOT":0},{"OBJECT_NAME":"EYESAT A (AO-27)","OBJECT_ID":"1993-061C","EPOCH":"2026-04-27T03:57:30.970656","MEAN_MOTION":14.30928018,"ECCENTRICITY":0.00073335,"INCLINATION":98.6904,"RA_OF_ASC_NODE":184.5902,"ARG_OF_PERICENTER":246.735,"MEAN_ANOMALY":113.3061,"EPHEMERIS_TYPE":0,"CLASSIFICATION_TYPE":"U","NORAD_CAT_ID":22825,"ELEMENT_SET_NO":999,"REV_AT_EPOCH":69970,"BSTAR":5.5994189e-5,"MEAN_MOTION_DOT":1.02e-6,"MEAN_MOTION_DDOT":0},{"OBJECT_NAME":"ITAMSAT (IO-26)","OBJECT_ID":"1993-061D","EPOCH":"2026-04-27T02:09:04.052736","MEAN_MOTION":14.31353373,"ECCENTRICITY":0.00080255,"INCLINATION":98.6851,"RA_OF_ASC_NODE":184.4271,"ARG_OF_PERICENTER":228.5293,"MEAN_ANOMALY":131.5201,"EPHEMERIS_TYPE":0,"CLASSIFICATION_TYPE":"U","NORAD_CAT_ID":22826,"ELEMENT_SET_NO":999,"REV_AT_EPOCH":70000,"BSTAR":5.1978497e-5,"MEAN_MOTION_DOT":9.3e-7,"MEAN_MOTION_DDOT":0},{"OBJECT_NAME":"RADIO ROSTO (RS15)","OBJECT_ID":"1994-085A","EPOCH":"2026-04-27T05:00:09.997920","MEAN_MOTION":11.27583791,"ECCENTRICITY":0.01544933,"INCLINATION":64.8209,"RA_OF_ASC_NODE":25.6625,"ARG_OF_PERICENTER":13.1549,"MEAN_ANOMALY":347.3336,"EPHEMERIS_TYPE":0,"CLASSIFICATION_TYPE":"U","NORAD_CAT_ID":23439,"ELEMENT_SET_NO":999,"REV_AT_EPOCH":29015,"BSTAR":-9.3121985e-5,"MEAN_MOTION_DOT":-4.6e-7,"MEAN_MOTION_DDOT":0},{"OBJECT_NAME":"JAS-2 (FO-29)","OBJECT_ID":"1996-046B","EPOCH":"2026-04-27T07:04:48.641952","MEAN_MOTION":13.53271725,"ECCENTRICITY":0.03490718,"INCLINATION":98.5301,"RA_OF_ASC_NODE":333.1206,"ARG_OF_PERICENTER":228.3975,"MEAN_ANOMALY":128.6768,"EPHEMERIS_TYPE":0,"CLASSIFICATION_TYPE":"U","NORAD_CAT_ID":24278,"ELEMENT_SET_NO":999,"REV_AT_EPOCH":46628,"BSTAR":5.3698467e-5,"MEAN_MOTION_DOT":1.6e-7,"MEAN_MOTION_DDOT":0},{"OBJECT_NAME":"TECHSAT 1B (GO-32)","OBJECT_ID":"1998-043D","EPOCH":"2026-04-26T20:34:10.254432","MEAN_MOTION":14.24417863,"ECCENTRICITY":0.00017579,"INCLINATION":99.0062,"RA_OF_ASC_NODE":108.3254,"ARG_OF_PERICENTER":42.3066,"MEAN_ANOMALY":317.8248,"EPHEMERIS_TYPE":0,"CLASSIFICATION_TYPE":"U","NORAD_CAT_ID":25397,"ELEMENT_SET_NO":999,"REV_AT_EPOCH":44402,"BSTAR":4.814078e-5,"MEAN_MOTION_DOT":6.5e-7,"MEAN_MOTION_DDOT":0},{"OBJECT_NAME":"ISS (ZARYA)","OBJECT_ID":"1998-067A","EPOCH":"2026-04-27T04:01:32.075040","MEAN_MOTION":15.48984622,"ECCENTRICITY":0.00070425,"INCLINATION":51.6319,"RA_OF_ASC_NODE":192.6271,"ARG_OF_PERICENTER":355.6641,"MEAN_ANOMALY":4.4286,"EPHEMERIS_TYPE":0,"CLASSIFICATION_TYPE":"U","NORAD_CAT_ID":25544,"ELEMENT_SET_NO":999,"REV_AT_EPOCH":56384,"BSTAR":0.00020199612,"MEAN_MOTION_DOT":0.00010693,"MEAN_MOTION_DDOT":0},{"OBJECT_NAME":"PCSAT (NO-44)","OBJECT_ID":"2001-043C","EPOCH":"2026-04-27T02:26:50.303040","MEAN_MOTION":14.31935553,"ECCENTRICITY":0.00065004,"INCLINATION":67.0527,"RA_OF_ASC_NODE":16.4003,"ARG_OF_PERICENTER":263.9911,"MEAN_ANOMALY":96.0451,"EPHEMERIS_TYPE":0,"CLASSIFICATION_TYPE":"U","NORAD_CAT_ID":26931,"ELEMENT_SET_NO":999,"REV_AT_EPOCH":28313,"BSTAR":7.5550888e-5,"MEAN_MOTION_DOT":1.2e-6,"MEAN_MOTION_DDOT":0},{"OBJECT_NAME":"SAUDISAT 1C (SO-50)","OBJECT_ID":"2002-058C","EPOCH":"2026-04-26T20:05:43.896768","MEAN_MOTION":14.82930098,"ECCENTRICITY":0.00755917,"INCLINATION":64.5515,"RA_OF_ASC_NODE":287.8458,"ARG_OF_PERICENTER":271.8075,"MEAN_ANOMALY":87.4374,"EPHEMERIS_TYPE":0,"CLASSIFICATION_TYPE":"U","NORAD_CAT_ID":27607,"ELEMENT_SET_NO":999,"REV_AT_EPOCH":25684,"BSTAR":0.00015126916,"MEAN_MOTION_DOT":1.136e-5,"MEAN_MOTION_DDOT":0},{"OBJECT_NAME":"CUTE-1 (CO-55)","OBJECT_ID":"2003-031E","EPOCH":"2026-04-26T23:11:29.559840","MEAN_MOTION":14.2430274,"ECCENTRICITY":0.00090672,"INCLINATION":98.6757,"RA_OF_ASC_NODE":126.1672,"ARG_OF_PERICENTER":341.6381,"MEAN_ANOMALY":18.447,"EPHEMERIS_TYPE":0,"CLASSIFICATION_TYPE":"U","NORAD_CAT_ID":27844,"ELEMENT_SET_NO":999,"REV_AT_EPOCH":18438,"BSTAR":0.00015133932,"MEAN_MOTION_DOT":3.06e-6,"MEAN_MOTION_DDOT":0},{"OBJECT_NAME":"CUBESAT XI-IV (CO-57)","OBJECT_ID":"2003-031J","EPOCH":"2026-04-26T23:59:12.403968","MEAN_MOTION":14.23592362,"ECCENTRICITY":0.000938,"INCLINATION":98.6788,"RA_OF_ASC_NODE":125.9538,"ARG_OF_PERICENTER":0.4265,"MEAN_ANOMALY":359.692,"EPHEMERIS_TYPE":0,"CLASSIFICATION_TYPE":"U","NORAD_CAT_ID":27848,"ELEMENT_SET_NO":999,"REV_AT_EPOCH":18409,"BSTAR":0.00012917905,"MEAN_MOTION_DOT":2.51e-6,"MEAN_MOTION_DDOT":0},{"OBJECT_NAME":"MOZHAETS 4 (RS22)","OBJECT_ID":"2003-042A","EPOCH":"2026-04-27T06:54:12.095136","MEAN_MOTION":14.73372932,"ECCENTRICITY":0.00125162,"INCLINATION":98.3472,"RA_OF_ASC_NODE":300.2119,"ARG_OF_PERICENTER":72.1676,"MEAN_ANOMALY":31.201,"EPHEMERIS_TYPE":0,"CLASSIFICATION_TYPE":"U","NORAD_CAT_ID":27939,"ELEMENT_SET_NO":999,"REV_AT_EPOCH":20805,"BSTAR":0.00017025577,"MEAN_MOTION_DOT":1.05e-5,"MEAN_MOTION_DDOT":0},{"OBJECT_NAME":"CUBESAT XI-V","OBJECT_ID":"2005-043F","EPOCH":"2026-04-27T04:02:51.185472","MEAN_MOTION":14.72493837,"ECCENTRICITY":0.00141944,"INCLINATION":98.2925,"RA_OF_ASC_NODE":271.7406,"ARG_OF_PERICENTER":12.8528,"MEAN_ANOMALY":347.3037,"EPHEMERIS_TYPE":0,"CLASSIFICATION_TYPE":"U","NORAD_CAT_ID":28895,"ELEMENT_SET_NO":999,"REV_AT_EPOCH":9424,"BSTAR":0.00025857913,"MEAN_MOTION_DOT":1.591e-5,"MEAN_MOTION_DDOT":0}]
